GEOSCAN 3 (RS92S3)      
1 64893U 25155T   26199.85562412  .00010802  00000+0  30628-3 0  9990
2 64893  97.4559 170.1289 0008463  77.6729 282.5461 15.36388222 85717
INNOSAT 3 (RS92S0)      
1 64894U 25155U   26199.85478747  .00025389  00000+0  52078-3 0  9997
2 64894  97.4503 172.1651 0008046  82.0976 278.1186 15.46000026 85857
KNACKSAT-2              
1 67683U 98067XZ  26199.07280907  .00034011  00000+0  37689-3 0  9994
2 67683  51.6275 138.8026 0007917 337.9309  22.1343 15.62605935 25109
