OBJECT_NAME,OBJECT_ID,EPOCH,MEAN_MOTION,ECCENTRICITY,INCLINATION,RA_OF_ASC_NODE,ARG_OF_PERICENTER,MEAN_ANOMALY,EPHEMERIS_TYPE,CLASSIFICATION_TYPE,NORAD_CAT_ID,ELEMENT_SET_NO,REV_AT_EPOCH,BSTAR,MEAN_MOTION_DOT,MEAN_MOTION_DDOT
GEOSCAN 3 (RS92S3),2025-155T,2026-07-18T20:32:05.923968,15.36388222,.0008463,97.4559,170.1289,77.6729,282.5461,0,U,64893,999,8571,.30628E-3,.10802E-3,0
INNOSAT 3 (RS92S0),2025-155U,2026-07-18T20:30:53.637408,15.46000026,.0008046,97.4503,172.1651,82.0976,278.1186,0,U,64894,999,8585,.52078E-3,.25389E-3,0
KNACKSAT-2,1998-067XZ,2026-07-18T01:44:50.703648,15.62605935,.00079174,51.6275,138.8026,337.9309,22.1343,0,U,67683,999,2510,.3768944E-3,.34011E-3,0
